[{"OBJECT_NAME":"STARLINK-32509","OBJECT_ID":"2024-216L","EPOCH":"2026-03-09T22:34:20.726688","MEAN_MOTION":15.27606457,"ECCENTRICITY":0.00022668,"INCLINATION":43.0015,"RA_OF_ASC_NODE":254.9348,"ARG_OF_PERICENTER":263.1184,"MEAN_ANOMALY":96.941,"EPHEMERIS_TYPE":0,"CLASSIFICATION_TYPE":"U","NORAD_CAT_ID":62042,"ELEMENT_SET_NO":999,"REV_AT_EPOCH":7391,"BSTAR":0.00099152356,"MEAN_MOTION_DOT":0.00027146,"MEAN_MOTION_DDOT":0},{"OBJECT_NAME":"CZ-2D DEB","OBJECT_ID":"2010-027D","EPOCH":"2026-03-07T13:36:06.977952","MEAN_MOTION":15.23568143,"ECCENTRICITY":0.0065729,"INCLINATION":97.6621,"RA_OF_ASC_NODE":290.9585,"ARG_OF_PERICENTER":344.0278,"MEAN_ANOMALY":15.8885,"EPHEMERIS_TYPE":0,"CLASSIFICATION_TYPE":"U","NORAD_CAT_ID":38299,"ELEMENT_SET_NO":999,"REV_AT_EPOCH":83553,"BSTAR":0.0024156,"MEAN_MOTION_DOT":0.00061723,"MEAN_MOTION_DDOT":0}]
